1 44939U 20001AB  23281.62577033  .00014102  00000-0  96283-3 0  9990
2 44939  53.0560 330.8495 0001359  91.3823 268.7322 15.06435399207022
1 44939U 20001AB  23282.35559185 -.00000680  00000-0 -26745-4 0  9994
2 44939  53.0549 327.5724 0001408  91.2508 268.8642 15.06397688207137
1 44939U 20001AB  23282.55463480  .00002472  00000-0  18485-3 0  9998
2 44939  53.0553 326.6784 0001504  91.6564 268.4597 15.06393789207167
1 44939U 20001AB  23282.62098200  .00004352  00000-0  31089-3 0  9994
2 44939  53.0555 326.3806 0001538  92.0771 268.0394 15.06394577207171
1 44939U 20001AB  23283.41714173  .00013636  00000-0  93221-3 0  9997
2 44939  53.0549 322.8070 0001523  93.4904 266.6259 15.06413901207295
1 44939U 20001AB  23283.41714173  .00013636  00000-0  93221-3 0  9997
2 44939  53.0549 322.8070 0001523  93.4904 266.6259 15.06413901207295
1 44939U 20001AB  23283.81522155  .00006961  00000-0  48560-3 0  9997
2 44939  53.0547 321.0198 0001364  85.6723 274.4422 15.06410163207353
1 44939U 20001AB  23284.08061430  .00000762  00000-0  70075-4 0  9991
2 44939  53.0549 319.8285 0002425  85.4064 274.7202 15.06398372207392
1 44939U 20001AB  23284.47869805  .00002867  00000-0  21135-3 0  9996
2 44939  53.0541 318.0420 0001546  89.2206 270.8960 15.06389735207457
1 44939U 20001AB  23285.47390374  .00012813  00000-0  87731-3 0  9993
2 44939  53.0539 313.5744 0001594  87.2951 272.8220 15.06407410207600
1 44939U 20001AB  23285.47390374  .00012813  00000-0  87731-3 0  9993
2 44939  53.0539 313.5744 0001594  87.2951 272.8220 15.06407410207600
1 44939U 20001AB  23286.33641345  .00004386  00000-0  31312-3 0  9996
2 44939  53.0537 309.7025 0001662  87.6287 272.4893 15.06401697207736
1 44939U 20001AB  23286.33641345  .00004386  00000-0  31312-3 0  9996
2 44939  53.0537 309.7025 0001662  87.6287 272.4893 15.06401697207736
1 44939U 20001AB  23286.80083813  .00008213  00000-0  56939-3 0  9993
2 44939  53.0539 307.6176 0001676  87.4677 272.6503 15.06412798207800
1 44939U 20001AB  23287.33160431  .00008129  00000-0  56367-3 0  9995
2 44939  53.0537 305.2334 0001697  91.9064 268.2120 15.06422432207881
1 44939U 20001AB  23287.33160431  .00008129  00000-0  56367-3 0  9995
2 44939  53.0537 305.2334 0001697  91.9064 268.2120 15.06422432207881
1 44939U 20001AB  23288.19411678 -.00000870  00000-0 -39500-4 0  9990
2 44939  53.0541 301.3613 0001383 119.5365 240.5762 15.06399071208019
1 44939U 20001AB  23288.32681509 -.00003161  00000-0 -19342-3 0  9994
2 44939  53.0550 300.7632 0001590  90.7008 269.4164 15.06390275208032
1 44939U 20001AB  23288.32681509 -.00003161  00000-0 -19342-3 0  9994
2 44939  53.0550 300.7632 0001590  90.7008 269.4164 15.06390275208032
1 44939U 20001AB  23288.72490001 -.00001097  00000-0 -54794-4 0  9990
2 44939  53.0550 298.9761 0001492  89.0782 271.0378 15.06389958208092
1 44939U 20001AB  23289.32202216 -.00000117  00000-0  11061-4 0  9997
2 44939  53.0544 296.2984 0001448  93.3665 266.7490 15.06396886208186
1 44939U 20001AB  23289.32202216 -.00000117  00000-0  11061-4 0  9997
2 44939  53.0544 296.2984 0001448  93.3665 266.7490 15.06396886208186
1 44939U 20001AB  23290.05184604  .00003497  00000-0  25358-3 0  9995
2 44939  53.0542 293.0222 0001361  93.5257 266.5887 15.06390864208297
1 44939U 20001AB  23290.05184604  .00003497  00000-0  25358-3 0  9995
2 44939  53.0542 293.0222 0001361  93.5257 266.5887 15.06390864208297
1 44939U 20001AB  23291.17973920  .00004538  00000-0  32330-3 0  9991
2 44939  53.0542 287.9590 0001392  92.7108 267.4041 15.06405535208460
1 44939U 20001AB  23291.17973920  .00004538  00000-0  32330-3 0  9991
2 44939  53.0542 287.9590 0001392  92.7108 267.4041 15.06405535208460
1 44939U 20001AB  23292.17494388  .00001438  00000-0  11539-3 0  9992
2 44939  53.0547 283.4891 0001494  88.6229 271.4931 15.06399594208618
1 44939U 20001AB  23292.37398430  .00001915  00000-0  14743-3 0  9995
2 44939  53.0543 282.5960 0001439  89.2712 270.8442 15.06401627208648
1 44939U 20001AB  23292.70571539  .00002782  00000-0  20554-3 0  9995
2 44939  53.0546 281.1076 0001445  89.5334 270.5821 15.06407064208698
1 44939U 20001AB  23293.17013624  .00003397  00000-0  24672-3 0  9991
2 44939  53.0543 279.0224 0001434  88.8900 271.2253 15.06414747208766
1 44939U 20001AB  23293.36917462  .00004281  00000-0  30596-3 0  9990
2 44939  53.0541 278.1296 0001470  86.5673 273.5485 15.06417020208797
1 44939U 20001AB  23294.09899467  .00000361  00000-0  43140-4 0  9990
2 44939  53.0547 274.8482 0002042 120.5706 239.5485 15.06400288208908
1 44939U 20001AB  23294.23169161 -.00000085  00000-0  13195-4 0  9998
2 44939  53.0549 274.2572 0001440  90.5017 269.6137 15.06398019208924
1 44939U 20001AB  23294.96150336  .00001078  00000-0  91228-4 0  9997
2 44939  53.0549 270.9805 0001421  93.4338 266.6813 15.06403616209034
1 44939U 20001AB  23295.22688816  .00003116  00000-0  22792-3 0  9990
2 44939  53.0549 269.7912 0001437  91.7034 268.4119 15.06409149209070
1 44939U 20001AB  23295.35958018  .00004172  00000-0  29870-3 0  9995
2 44939  53.0545 269.1948 0001419  98.6164 261.4986 15.06411926209092
1 44939U 20001AB  23295.62496880  .00003645  00000-0  26343-3 0  9995
2 44939  53.0533 267.9987 0001114  70.6872 289.4237 15.06404368209132
1 44939U 20001AB  23295.62496880  .00003645  00000-0  26343-3 0  9995
2 44939  53.0533 267.9987 0001114  70.6872 289.4237 15.06404368209132
1 44939U 20001AB  23296.22210346 -.00001259  00000-0 -65628-4 0  9994
2 44939  53.0557 265.3251 0001624  95.3500 264.7675 15.06386564209221
1 44939U 20001AB  23296.62018754 -.00001892  00000-0 -10820-3 0  9993
2 44939  53.0554 263.5384 0001653  96.3729 263.7448 15.06384076209280
1 44939U 20001AB  23297.15096143  .00002168  00000-0  16444-3 0  9993
2 44939  53.0561 261.1555 0001706  96.9014 263.2169 15.06396169209364
1 44939U 20001AB  23297.28365575  .00002842  00000-0  20960-3 0  9992
2 44939  53.0539 260.5569 0001485  82.4559 277.6598 15.06396697209388
1 44939U 20001AB  23298.87597620  .00007192  00000-0  50103-3 0  9991
2 44939  53.0534 253.4082 0001485  88.0523 272.0636 15.06414772209621
1 44939U 20001AB  23298.87597620  .00007192  00000-0  50103-3 0  9991
2 44939  53.0534 253.4082 0001485  88.0523 272.0636 15.06414772209621
1 44939U 20001AB  23299.27404963  .00011040  00000-0  75834-3 0  9998
2 44939  53.0533 251.6210 0001497  88.7844 271.3317 15.06428124209689
1 44939U 20001AB  23300.13656037  .00005377  00000-0  37953-3 0  9993
2 44939  53.0540 247.7490 0001338  90.0609 270.0533 15.06407034209810
1 44939U 20001AB  23300.26925402  .00009434  00000-0  65121-3 0  9998
2 44939  53.0541 247.1534 0001290  91.7090 268.4047 15.06409269209838
1 44939U 20001AB  23301.52982992  .00001629  00000-0  12816-3 0  9996
2 44939  53.0542 241.4933 0001631  94.8623 265.2552 15.06421950210024
1 44939U 20001AB  23301.86157022 -.00005026  00000-0 -31880-3 0  9990
2 44939  53.0547 240.0061 0001677  81.8451 278.2728 15.06395042210077
1 44939U 20001AB  23301.86157022 -.00005026  00000-0 -31880-3 0  9990
2 44939  53.0547 240.0061 0001677  81.8451 278.2728 15.06395042210077
1 44939U 20001AB  23302.52504687  .00017268  00000-0  11755-2 0  9994
2 44939  53.0548 237.0274 0001371  78.8120 281.3023 15.06393127210176
1 44939U 20001AB  23302.85678081  .00022189  00000-0  15035-2 0  9993
2 44939  53.0547 235.5381 0001390  76.2057 283.9086 15.06409003210223
1 44939U 20001AB  23303.18851025  .00022853  00000-0  15471-2 0  9993
2 44939  53.0544 234.0491 0001369  76.6767 283.4375 15.06424762210274
1 44939U 20001AB  23303.52024935 -.00001402  00000-0 -75276-4 0  9993
2 44939  53.0551 232.5603 0001291  87.7771 272.3366 15.06393497210325
1 44939U 20001AB  23303.52024935 -.00001402  00000-0 -75276-4 0  9993
2 44939  53.0551 232.5603 0001291  87.7771 272.3366 15.06393497210325
1 44939U 20001AB  23304.11738290  .00018862  00000-0  12826-2 0  9991
2 44939  53.0539 229.8801 0001352  94.6152 265.4991 15.06376437210410
1 44939U 20001AB  23304.51546850  .00018673  00000-0  12696-2 0  9999
2 44939  53.0539 228.0932 0001489  92.7604 267.3556 15.06387335210471
1 44939U 20001AB  23305.51067010  .00011492  00000-0  78899-3 0  9996
2 44939  53.0538 223.6252 0001092  88.7080 271.4034 15.06407050210620
1 44939U 20001AB  23305.51067010  .00011492  00000-0  78899-3 0  9996
2 44939  53.0538 223.6252 0001092  88.7080 271.4034 15.06407050210620
1 44939U 20001AB  23306.17414630  .00019978  00000-0  13565-2 0  9998
2 44939  53.0542 220.6468 0001524  86.7052 273.4111 15.06393998210722
1 44939U 20001AB  23306.17414630  .00019978  00000-0  13565-2 0  9998
2 44939  53.0542 220.6468 0001524  86.7052 273.4111 15.06393998210722
1 44939U 20001AB  23306.90395375  .00020330  00000-0  13788-2 0  9994
2 44939  53.0542 217.3702 0001470  87.7985 272.3173 15.06426344210832
1 44939U 20001AB  23307.16933409  .00020539  00000-0  13922-2 0  9990
2 44939  53.0540 216.1800 0001470  84.5181 275.5975 15.06440452210874
1 44939U 20001AB  23307.16933409  .00020539  00000-0  13922-2 0  9990
2 44939  53.0540 216.1800 0001470  84.5181 275.5975 15.06440452210874
1 44939U 20001AB  23307.89915612  .00007452  00000-0  51884-3 0  9995
2 44939  53.0538 212.9001 0002881 135.4044 224.7178 15.06387981210989
1 44939U 20001AB  23308.16454581  .00010904  00000-0  74973-3 0  9999
2 44939  53.0543 211.7109 0001407 102.3489 257.7658 15.06402703211025
1 44939U 20001AB  23308.42993543  .00015288  00000-0  10430-2 0  9991
2 44939  53.0533 210.5198 0001364 103.1923 256.9219 15.06400529211065
1 44939U 20001AB  23308.89435916  .00017004  00000-0  11571-2 0  9992
2 44939  53.0534 208.4335 0001349  98.7552 261.3590 15.06417934211133
1 44939U 20001AB  23309.42512405  .00015447  00000-0  10527-2 0  9990
2 44939  53.0517 206.0521 0001091  99.3020 260.8092 15.06431781211212
1 44939U 20001AB  23309.42512405  .00015447  00000-0  10527-2 0  9990
2 44939  53.0517 206.0521 0001091  99.3020 260.8092 15.06431781211212
1 44939U 20001AB  23309.88954323  .00019195  00000-0  13024-2 0  9998
2 44939  53.0532 203.9663 0001453  95.0501 265.0653 15.06445119211288
